[{"OBJECT_NAME":"STARLINK-30247","OBJECT_ID":"2023-122N","EPOCH":"2026-03-09T22:00:01.999584","MEAN_MOTION":15.26731362,"ECCENTRICITY":0.00012338,"INCLINATION":43.0007,"RA_OF_ASC_NODE":90.9641,"ARG_OF_PERICENTER":247.6181,"MEAN_ANOMALY":149.8331,"EPHEMERIS_TYPE":0,"CLASSIFICATION_TYPE":"U","NORAD_CAT_ID":57644,"ELEMENT_SET_NO":999,"REV_AT_EPOCH":573,"BSTAR":0.0014314563,"MEAN_MOTION_DOT":0.00038327,"MEAN_MOTION_DDOT":0},{"OBJECT_NAME":"STARLINK-36554","OBJECT_ID":"2026-012K","EPOCH":"2026-03-08T17:06:15.871680","MEAN_MOTION":15.27591469,"ECCENTRICITY":6.955e-5,"INCLINATION":42.9934,"RA_OF_ASC_NODE":319.8184,"ARG_OF_PERICENTER":339.2059,"MEAN_ANOMALY":20.8765,"EPHEMERIS_TYPE":0,"CLASSIFICATION_TYPE":"U","NORAD_CAT_ID":67502,"ELEMENT_SET_NO":999,"REV_AT_EPOCH":761,"BSTAR":0.0011969118,"MEAN_MOTION_DOT":0.00032833,"MEAN_MOTION_DDOT":0}]
